DRAGON CRS-6            
1 40588U 15021A   15107.55990741  .00021328  00000-0  30900-3 0  9999
2 40588  51.6478  26.9099 0005986 222.9710 135.8879 15.55797401   436
THOR 7                  
1 40613U 15022A   15120.90017294 -.00000088  00000-0  00000+0 0  9991
2 40613   0.0966 302.2295 0277685 221.1506 356.7738  1.04648563    75
ARIANE 5 R/B            
1 40615U 15022C   15119.27298887  .00002872  00000-0  76665-3 0  9996
2 40615   5.9246 341.7723 7287740 177.9783 188.5173  2.27636489    53
ARIANE 5 DEB [SYLDA]    
1 40616U 15022D   15118.81950207  .00029694  00000-0  71122-2 0  9990
2 40616   5.9962 340.0062 7282330 179.5257 181.8023  2.28376749    41
TURKMENALEM 52E         
1 40617U 15023A   15120.92031569 -.00000141  00000-0  00000+0 0  9999
2 40617   1.7222  16.1768 1181823 179.9922 295.3575  1.19157349    80
FALCON 9 R/B            
1 40618U 15023B   15118.63059105  .00001326  00000-0  19866-3 0  9990
2 40618  25.4766  31.5906 7278988 179.4168 180.7532  2.30545727    01
2015-024F               
1 40624U 15024F   15118.59784289 -.00003870  12236-4  00000+0 0  9992
2 40624  51.6451 331.6776 0028083  56.3340 303.8360 16.33346738    13